QIANFAN-65              
1 62795U 25016L   25359.32140848  .00000154  00000+0  22053-3 0  9991
2 62795  88.9765 101.7596 0012292 309.4705  50.5358 13.50981614 48946
QIANFAN-66              
1 62796U 25016M   25359.27617719  .00000180  00000+0  26100-3 0  9998
2 62796  88.9785 101.7368 0013330 304.3769  55.6121 13.50980908 48987
QIANFAN-67              
1 62797U 25016N   25359.28039020  .00000187  00000+0  27148-3 0  9993
2 62797  88.9775 101.7608 0013373 312.1572  47.8442 13.50985076 48957
QIANFAN-68              
1 62798U 25016P   25359.27206317  .00000176  00000+0  25354-3 0  9993
2 62798  88.9779 101.8073 0013416 310.2152  49.7825 13.50987442 48933
QIANFAN-69              
1 62799U 25016Q   25359.21446595  .00000183  00000+0  26427-3 0  9992
2 62799  88.9757 101.6799 0014181 311.5396  48.4538 13.50990221 48966
QIANFAN-70              
1 62800U 25016R   25359.23097648  .00000181  00000+0  26234-3 0  9992
2 62800  88.9778 101.8194 0013688 300.6982  59.2820 13.50981155 48920
QIANFAN-71              
1 62801U 25016S   25359.30084641  .00000170  00000+0  24448-3 0  9993
2 62801  88.9772 101.7909 0014136 315.2131  44.7878 13.50980716 48930
QIANFAN-72              
1 62802U 25016T   25359.24323500  .00000193  00000+0  27971-3 0  9996
2 62802  88.9762 101.8090 0017523 322.6757  37.3175 13.50980460 48913
